[{"OBJECT_NAME":"STARLINK-34507","OBJECT_ID":"2025-129AB","EPOCH":"2026-03-09T23:29:09.257568","MEAN_MOTION":14.98355595,"ECCENTRICITY":0.0002128,"INCLINATION":70,"RA_OF_ASC_NODE":73.6013,"ARG_OF_PERICENTER":228.6362,"MEAN_ANOMALY":131.4614,"EPHEMERIS_TYPE":0,"CLASSIFICATION_TYPE":"U","NORAD_CAT_ID":64437,"ELEMENT_SET_NO":999,"REV_AT_EPOCH":4133,"BSTAR":0.00029522686,"MEAN_MOTION_DOT":3.434e-5,"MEAN_MOTION_DDOT":0},{"OBJECT_NAME":"COSMOS 249 DEB","OBJECT_ID":"1968-091BP","EPOCH":"2026-03-09T03:57:13.495392","MEAN_MOTION":13.42038189,"ECCENTRICITY":0.07938892,"INCLINATION":62.9233,"RA_OF_ASC_NODE":0.91,"ARG_OF_PERICENTER":72.9065,"MEAN_ANOMALY":295.7294,"EPHEMERIS_TYPE":0,"CLASSIFICATION_TYPE":"U","NORAD_CAT_ID":3911,"ELEMENT_SET_NO":999,"REV_AT_EPOCH":65389,"BSTAR":0.001716156,"MEAN_MOTION_DOT":6.769e-5,"MEAN_MOTION_DDOT":0}]
